{
  "type": "FeatureCollection",
  "features": [
    {
      "type": "Feature",
      "properties": {
        "norad_id": 41831,
        "name": "FENGYUN 1C DEB",
        "group": "fengyun-1c-debris",
        "lat": 73.68133256051601,
        "lon": -84.31819740271612,
        "alt_km": 800.7163481634689,
        "timestamp": "2025-12-23T05:02:12.321156+00:00",
        "meta_object_name": "FENGYUN 1C DEB",
        "meta_object_id": "1999-025EYJ",
        "meta_epoch": "2025-12-21T22:12:23.778144",
        "meta_mean_motion": 14.24626179,
        "meta_eccentricity": 0.00566896,
        "meta_inclination": 98.7339,
        "meta_ra_of_asc_node": 62.7319,
        "meta_arg_of_pericenter": 195.1474,
        "meta_mean_anomaly": 164.8009,
        "meta_ephemeris_type": 0,
        "meta_classification_type": "U",
        "meta_norad_cat_id": 41831,
        "meta_element_set_no": 999,
        "meta_rev_at_epoch": 47390,
        "meta_bstar": 0.0014496316,
        "meta_mean_motion_dot": 3.382e-05,
        "meta_mean_motion_ddot": 0,
        "tle_line1": "1 41831U 99025EYJ 25355.92527521  .00003382  00000+0  14496-2 0  9996",
        "tle_line2": "2 41831  98.7339  62.7319 0056689 195.1474 164.8009 14.24626179473904"
      },
      "geometry": {
        "type": "Point",
        "coordinates": [
          -84.31819740271612,
          73.68133256051601
        ]
      }
    },
    {
      "type": "Feature",
      "properties": {
        "norad_id": 41832,
        "name": "FENGYUN 1C DEB",
        "group": "fengyun-1c-debris",
        "lat": 33.24716270662158,
        "lon": -113.05648634999599,
        "alt_km": 782.4553512211924,
        "timestamp": "2025-12-23T05:02:12.321166+00:00",
        "meta_object_name": "FENGYUN 1C DEB",
        "meta_object_id": "1999-025EYK",
        "meta_epoch": "2025-12-21T03:27:18.834336",
        "meta_mean_motion": 14.24290374,
        "meta_eccentricity": 0.00559407,
        "meta_inclination": 98.7283,
        "meta_ra_of_asc_node": 59.1117,
        "meta_arg_of_pericenter": 201.6325,
        "meta_mean_anomaly": 158.249,
        "meta_ephemeris_type": 0,
        "meta_classification_type": "U",
        "meta_norad_cat_id": 41832,
        "meta_element_set_no": 999,
        "meta_rev_at_epoch": 47470,
        "meta_bstar": 0.0010838292,
        "meta_mean_motion_dot": 2.499e-05,
        "meta_mean_motion_ddot": 0,
        "tle_line1": "1 41832U 99025EYK 25355.14396799  .00002499  00000+0  10838-2 0  9996",
        "tle_line2": "2 41832  98.7283  59.1117 0055940 201.6325 158.2490 14.24290374474700"
      },
      "geometry": {
        "type": "Point",
        "coordinates": [
          -113.05648634999599,
          33.24716270662158
        ]
      }
    },
    {
      "type": "Feature",
      "properties": {
        "norad_id": 41833,
        "name": "FENGYUN 1C DEB",
        "group": "fengyun-1c-debris",
        "lat": 52.604972323668704,
        "lon": 55.13656469260066,
        "alt_km": 830.6779921186244,
        "timestamp": "2025-12-23T05:02:12.321176+00:00",
        "meta_object_name": "FENGYUN 1C DEB",
        "meta_object_id": "1999-025EYL",
        "meta_epoch": "2025-12-22T16:59:42.982368",
        "meta_mean_motion": 14.25885201,
        "meta_eccentricity": 0.00548992,
        "meta_inclination": 98.7471,
        "meta_ra_of_asc_node": 66.2553,
        "meta_arg_of_pericenter": 195.0208,
        "meta_mean_anomaly": 164.9344,
        "meta_ephemeris_type": 0,
        "meta_classification_type": "U",
        "meta_norad_cat_id": 41833,
        "meta_element_set_no": 999,
        "meta_rev_at_epoch": 47506,
        "meta_bstar": 0.0016939625,
        "meta_mean_motion_dot": 4.055e-05,
        "meta_mean_motion_ddot": 0,
        "tle_line1": "1 41833U 99025EYL 25356.70813637  .00004055  00000+0  16940-2 0  9995",
        "tle_line2": "2 41833  98.7471  66.2553 0054899 195.0208 164.9344 14.25885201475063"
      },
      "geometry": {
        "type": "Point",
        "coordinates": [
          55.13656469260066,
          52.604972323668704
        ]
      }
    },
    {
      "type": "Feature",
      "properties": {
        "norad_id": 43213,
        "name": "FENGYUN 1C DEB",
        "group": "fengyun-1c-debris",
        "lat": -3.6397506897134653,
        "lon": -119.0181909837762,
        "alt_km": 776.8727207144129,
        "timestamp": "2025-12-23T05:02:12.321187+00:00",
        "meta_object_name": "FENGYUN 1C DEB",
        "meta_object_id": "1999-025EYM",
        "meta_epoch": "2025-12-18T14:33:19.611072",
        "meta_mean_motion": 14.23893333,
        "meta_eccentricity": 0.00552662,
        "meta_inclination": 98.7338,
        "meta_ra_of_asc_node": 56.9703,
        "meta_arg_of_pericenter": 210.4712,
        "meta_mean_anomaly": 149.3252,
        "meta_ephemeris_type": 0,
        "meta_classification_type": "U",
        "meta_norad_cat_id": 43213,
        "meta_element_set_no": 999,
        "meta_rev_at_epoch": 40456,
        "meta_bstar": 0.0011936049,
        "meta_mean_motion_dot": 2.735e-05,
        "meta_mean_motion_ddot": 0,
        "tle_line1": "1 43213U 99025EYM 25352.60647698  .00002735  00000+0  11936-2 0  9999",
        "tle_line2": "2 43213  98.7338  56.9703 0055266 210.4712 149.3252 14.23893333404568"
      },
      "geometry": {
        "type": "Point",
        "coordinates": [
          -119.0181909837762,
          -3.6397506897134653
        ]
      }
    },
    {
      "type": "Feature",
      "properties": {
        "norad_id": 43214,
        "name": "FENGYUN 1C DEB",
        "group": "fengyun-1c-debris",
        "lat": 59.81875476834647,
        "lon": -102.81398488233968,
        "alt_km": 796.780376413486,
        "timestamp": "2025-12-23T05:02:12.321196+00:00",
        "meta_object_name": "FENGYUN 1C DEB",
        "meta_object_id": "1999-025EYN",
        "meta_epoch": "2025-12-21T17:04:03.454176",
        "meta_mean_motion": 14.24186618,
        "meta_eccentricity": 0.00559328,
        "meta_inclination": 98.7347,
        "meta_ra_of_asc_node": 60.3684,
        "meta_arg_of_pericenter": 201.2751,
        "meta_mean_anomaly": 158.6102,
        "meta_ephemeris_type": 0,
        "meta_classification_type": "U",
        "meta_norad_cat_id": 43214,
        "meta_element_set_no": 999,
        "meta_rev_at_epoch": 40531,
        "meta_bstar": 0.0011889765,
        "meta_mean_motion_dot": 2.741e-05,
        "meta_mean_motion_ddot": 0,
        "tle_line1": "1 43214U 99025EYN 25355.71115109  .00002741  00000+0  11890-2 0  9998",
        "tle_line2": "2 43214  98.7347  60.3684 0055932 201.2751 158.6102 14.24186618405310"
      },
      "geometry": {
        "type": "Point",
        "coordinates": [
          -102.81398488233968,
          59.81875476834647
        ]
      }
    },
    {
      "type": "Feature",
      "properties": {
        "norad_id": 43358,
        "name": "FENGYUN 1C DEB",
        "group": "fengyun-1c-debris",
        "lat": -52.230554586814435,
        "lon": 127.15470417857945,
        "alt_km": 1287.7006270673955,
        "timestamp": "2025-12-23T05:02:12.321206+00:00",
        "meta_object_name": "FENGYUN 1C DEB",
        "meta_object_id": "1999-025EYP",
        "meta_epoch": "2025-12-22T20:21:40.337856",
        "meta_mean_motion": 13.40400419,
        "meta_eccentricity": 0.03675897,
        "meta_inclination": 98.6873,
        "meta_ra_of_asc_node": 115.4637,
        "meta_arg_of_pericenter": 177.3144,
        "meta_mean_anomaly": 183.0078,
        "meta_ephemeris_type": 0,
        "meta_classification_type": "U",
        "meta_norad_cat_id": 43358,
        "meta_element_set_no": 999,
        "meta_rev_at_epoch": 53866,
        "meta_bstar": 0.0017802434,
        "meta_mean_motion_dot": 1.414e-05,
        "meta_mean_motion_ddot": 0,
        "tle_line1": "1 43358U 99025EYP 25356.84838354  .00001414  00000+0  17802-2 0  9991",
        "tle_line2": "2 43358  98.6873 115.4637 0367589 177.3144 183.0078 13.40400419538669"
      },
      "geometry": {
        "type": "Point",
        "coordinates": [
          127.15470417857945,
          -52.230554586814435
        ]
      }
    },
    {
      "type": "Feature",
      "properties": {
        "norad_id": 43359,
        "name": "FENGYUN 1C DEB",
        "group": "fengyun-1c-debris",
        "lat": -15.416580338617537,
        "lon": 80.01304521501774,
        "alt_km": 766.284736104777,
        "timestamp": "2025-12-23T05:02:12.321216+00:00",
        "meta_object_name": "FENGYUN 1C DEB",
        "meta_object_id": "1999-025EYQ",
        "meta_epoch": "2025-12-21T04:10:45.213888",
        "meta_mean_motion": 14.23228275,
        "meta_eccentricity": 0.00734161,
        "meta_inclination": 99.0535,
        "meta_ra_of_asc_node": 75.4001,
        "meta_arg_of_pericenter": 349.9886,
        "meta_mean_anomaly": 9.9825,
        "meta_ephemeris_type": 0,
        "meta_classification_type": "U",
        "meta_norad_cat_id": 43359,
        "meta_element_set_no": 999,
        "meta_rev_at_epoch": 47869,
        "meta_bstar": 0.0013478947,
        "meta_mean_motion_dot": 3.089e-05,
        "meta_mean_motion_ddot": 0,
        "tle_line1": "1 43359U 99025EYQ 25355.17413442  .00003089  00000+0  13479-2 0  9990",
        "tle_line2": "2 43359  99.0535  75.4001 0073416 349.9886   9.9825 14.23228275478695"
      },
      "geometry": {
        "type": "Point",
        "coordinates": [
          80.01304521501774,
          -15.416580338617537
        ]
      }
    }
  ]
}